ONEWEB-0369             
1 49295U 21090S   23264.46174660  .00004483  00000+0  11164-1 0  9994
2 49295  87.9246 143.9405 0002290  67.7840 292.3535 13.19704603 94554
ONEWEB-0370             
1 49296U 21090T   23264.63689014  .00000028  00000+0  37357-4 0  9994
2 49296  87.9161 113.4562 0001649  81.1174 279.0146 13.20773931 99225
ONEWEB-0371             
1 49297U 21090U   23264.69709094  .00000055  00000+0  10512-3 0  9995
2 49297  87.9247 143.8826 0001851  76.1318 284.0021 13.19724206 95919
ONEWEB-0372             
1 49298U 21090V   23264.62639798  .00000125  00000+0  27616-3 0  9993
2 49298  87.9170 113.4552 0002109  77.7350 282.4020 13.20771563 99199
ONEWEB-0373             
1 49299U 21090W   23264.65374345  .00000025  00000+0  29626-4 0  9994
2 49299  87.9238 113.4090 0001724  98.0621 262.0708 13.20771323100386
ONEWEB-0374             
1 49300U 21090X   23264.15964544  .00000227  00000+0  57788-3 0  9991
2 49300  87.8986 128.7823 0001787  82.1560 277.9773 13.14505043 96182
ONEWEB-0375             
1 49301U 21090Y   23264.64110119 -.00000011  00000+0 -60155-4 0  9993
2 49301  87.9158 113.4573 0001061 100.6806 259.4446 13.20770531 99876
ONEWEB-0376             
1 49302U 21090Z   23264.16479145 -.00001436  00000+0 -36186-2 0  9995
2 49302  87.9250 144.0053 0002311  75.8647 284.2742 13.19731716 94553
